{
  "links" : {
    "next" : "https://api.nasa.gov/neo/rest/v1/feed?start_date=2003-03-16&end_date=2003-03-16&detailed=true&api_key=t0TVs3DtDT2H8Oy2Zy8m2eVrNsAVKAexjcZXUckd",
    "prev" : "https://api.nasa.gov/neo/rest/v1/feed?start_date=2003-03-14&end_date=2003-03-14&detailed=true&api_key=t0TVs3DtDT2H8Oy2Zy8m2eVrNsAVKAexjcZXUckd",
    "self" : "https://api.nasa.gov/neo/rest/v1/feed?start_date=2003-03-15&end_date=2003-03-15&detailed=true&api_key=t0TVs3DtDT2H8Oy2Zy8m2eVrNsAVKAexjcZXUckd"
  },
  "element_count" : 3,
  "near_earth_objects" : {
    "2003-03-15" : [ {
      "links" : {
        "self" : "https://api.nasa.gov/neo/rest/v1/neo/3117468?api_key=t0TVs3DtDT2H8Oy2Zy8m2eVrNsAVKAexjcZXUckd"
      },
      "neo_reference_id" : "3117468",
      "name" : "(2002 FT6)",
      "nasa_jpl_url" : "http://ssd.jpl.nasa.gov/sbdb.cgi?sstr=3117468",
      "absolute_magnitude_h" : 22.5,
      "estimated_diameter" : {
        "kilometers" : {
          "estimated_diameter_min" : 0.0840533402,
          "estimated_diameter_max" : 0.1879489824
        },
        "meters" : {
          "estimated_diameter_min" : 84.0533402073,
          "estimated_diameter_max" : 187.9489824394
        },
        "miles" : {
          "estimated_diameter_min" : 0.0522283081,
          "estimated_diameter_max" : 0.1167860472
        },
        "feet" : {
          "estimated_diameter_min" : 275.7655606856,
          "estimated_diameter_max" : 616.6305395464
        }
      },
      "is_potentially_hazardous_asteroid" : false,
      "close_approach_data" : [ {
        "close_approach_date" : "2003-03-15",
        "epoch_date_close_approach" : 1047715200000,
        "relative_velocity" : {
          "kilometers_per_second" : "11.6909412915",
          "kilometers_per_hour" : "42087.3886493636",
          "miles_per_hour" : "26151.4665749338"
        },
        "miss_distance" : {
          "astronomical" : "0.1111885861",
          "lunar" : "43.2523574829",
          "kilometers" : "16633575",
          "miles" : "10335625"
        },
        "orbiting_body" : "Earth"
      } ],
      "orbital_data" : {
        "orbit_id" : "22",
        "orbit_determination_date" : "2017-06-21 06:17:20",
        "orbit_uncertainty" : "1",
        "minimum_orbit_intersection" : ".0413485",
        "jupiter_tisserand_invariant" : "6.026",
        "epoch_osculation" : "2458000.5",
        "eccentricity" : ".462699943687126",
        "semi_major_axis" : ".9884238521030382",
        "inclination" : "9.488402611056026",
        "ascending_node_longitude" : "188.5128520742066",
        "orbital_period" : "358.9328872268388",
        "perihelion_distance" : ".5310801913959503",
        "perihelion_argument" : "226.7025553557057",
        "aphelion_distance" : "1.445767512810126",
        "perihelion_time" : "2458025.544584674616",
        "mean_anomaly" : "334.8809574053776",
        "mean_motion" : "1.00297301476442",
        "equinox" : "J2000"
      }
    }, {
      "links" : {
        "self" : "https://api.nasa.gov/neo/rest/v1/neo/3608622?api_key=t0TVs3DtDT2H8Oy2Zy8m2eVrNsAVKAexjcZXUckd"
      },
      "neo_reference_id" : "3608622",
      "name" : "(2012 RL15)",
      "nasa_jpl_url" : "http://ssd.jpl.nasa.gov/sbdb.cgi?sstr=3608622",
      "absolute_magnitude_h" : 24.3,
      "estimated_diameter" : {
        "kilometers" : {
          "estimated_diameter_min" : 0.0366906138,
          "estimated_diameter_max" : 0.0820427065
        },
        "meters" : {
          "estimated_diameter_min" : 36.6906137531,
          "estimated_diameter_max" : 82.0427064882
        },
        "miles" : {
          "estimated_diameter_min" : 0.0227984834,
          "estimated_diameter_max" : 0.0509789586
        },
        "feet" : {
          "estimated_diameter_min" : 120.3760332259,
          "estimated_diameter_max" : 269.1689931548
        }
      },
      "is_potentially_hazardous_asteroid" : false,
      "close_approach_data" : [ {
        "close_approach_date" : "2003-03-15",
        "epoch_date_close_approach" : 1047715200000,
        "relative_velocity" : {
          "kilometers_per_second" : "20.2914670772",
          "kilometers_per_hour" : "73049.2814777422",
          "miles_per_hour" : "45389.9827048782"
        },
        "miss_distance" : {
          "astronomical" : "0.3587156985",
          "lunar" : "139.5404052734",
          "kilometers" : "53663108",
          "miles" : "33344708"
        },
        "orbiting_body" : "Earth"
      } ],
      "orbital_data" : {
        "orbit_id" : "7",
        "orbit_determination_date" : "2017-04-06 08:49:01",
        "orbit_uncertainty" : "7",
        "minimum_orbit_intersection" : ".077424",
        "jupiter_tisserand_invariant" : "6.638",
        "epoch_osculation" : "2458000.5",
        "eccentricity" : ".2940179782073041",
        "semi_major_axis" : ".8766289996357493",
        "inclination" : "26.49645631312304",
        "ascending_node_longitude" : "172.9998697407372",
        "orbital_period" : "299.7934755168271",
        "perihelion_distance" : ".6188843135249548",
        "perihelion_argument" : "334.079659313107",
        "aphelion_distance" : "1.134373685746544",
        "perihelion_time" : "2458097.260118828766",
        "mean_anomaly" : "243.8078690061405",
        "mean_motion" : "1.200826667022624",
        "equinox" : "J2000"
      }
    }, {
      "links" : {
        "self" : "https://api.nasa.gov/neo/rest/v1/neo/3602933?api_key=t0TVs3DtDT2H8Oy2Zy8m2eVrNsAVKAexjcZXUckd"
      },
      "neo_reference_id" : "3602933",
      "name" : "(2012 HD20)",
      "nasa_jpl_url" : "http://ssd.jpl.nasa.gov/sbdb.cgi?sstr=3602933",
      "absolute_magnitude_h" : 22.3,
      "estimated_diameter" : {
        "kilometers" : {
          "estimated_diameter_min" : 0.0921626549,
          "estimated_diameter_max" : 0.2060819612
        },
        "meters" : {
          "estimated_diameter_min" : 92.1626548503,
          "estimated_diameter_max" : 206.0819612321
        },
        "miles" : {
          "estimated_diameter_min" : 0.057267201,
          "estimated_diameter_max" : 0.1280533543
        },
        "feet" : {
          "estimated_diameter_min" : 302.370924539,
          "estimated_diameter_max" : 676.1219416887
        }
      },
      "is_potentially_hazardous_asteroid" : false,
      "close_approach_data" : [ {
        "close_approach_date" : "2003-03-15",
        "epoch_date_close_approach" : 1047715200000,
        "relative_velocity" : {
          "kilometers_per_second" : "5.3111412306",
          "kilometers_per_hour" : "19120.1084302725",
          "miles_per_hour" : "11880.491818799"
        },
        "miss_distance" : {
          "astronomical" : "0.1012013588",
          "lunar" : "39.3673286438",
          "kilometers" : "15139507",
          "miles" : "9407254"
        },
        "orbiting_body" : "Earth"
      } ],
      "orbital_data" : {
        "orbit_id" : "21",
        "orbit_determination_date" : "2017-04-06 08:49:56",
        "orbit_uncertainty" : "2",
        "minimum_orbit_intersection" : ".0434183",
        "jupiter_tisserand_invariant" : "5.320",
        "epoch_osculation" : "2458000.5",
        "eccentricity" : ".2715494131600155",
        "semi_major_axis" : "1.181040459909926",
        "inclination" : "4.69351067863491",
        "ascending_node_longitude" : "87.12056775437642",
        "orbital_period" : "468.8086223706401",
        "perihelion_distance" : ".8603296161031512",
        "perihelion_argument" : "32.10409903147875",
        "aphelion_distance" : "1.501751303716702",
        "perihelion_time" : "2457826.376586325657",
        "mean_anomaly" : "133.7100597804389",
        "mean_motion" : ".7679039651181671",
        "equinox" : "J2000"
      }
    } ]
  }
}